1 28054U 03048A 26162.22418122 -.00000009 00000+0 18962-4 0 9992 
2 28054 98.9891 186.0130 0007459 155.6492 272.8373 14.14482592168648 
1 28912U 05049B 26161.84794816 .00000136 00000+0 00000+0 0 9991 
2 28912 9.3464 54.2281 0001608 348.0762 207.8226 1.00269523 6930 
1 29522U 06050A 26162.30065602 .00000015 00000+0 30311-4 0 9997 
2 29522 98.7378 168.9911 0011298 74.4270 285.8150 14.14992192 11591 
1 32958U 08026A 26162.12670643 .00000043 00000+0 41135-4 0 9993 
2 32958 98.6883 103.0733 0009340 139.6694 220.5176 14.19569920934546 
1 35491U 09033A 26162.22415880 -.00000251 00000+0 00000+0 0 9991 
2 35491 1.6737 83.1128 0001815 7.9135 34.5008 1.00112869 6533 
1 35951U 09057A 26162.20092645 .00000224 00000+0 13923-3 0 9997 
2 35951 98.9035 142.9831 0009844 268.5719 91.4326 14.14893381858749 
1 36411U 10008A 26162.13674604 .00000035 00000+0 00000+0 0 9998 
2 36411 1.2604 82.9503 0005420 40.3906 249.0136 1.00275480 59578 
1 36744U 10032A 26154.99142485 -.00000334 00000+0 00000+0 0 9999 
2 36744 4.7750 75.5286 0001016 4.5847 297.3769 1.00270643 50953 
1 37214U 10059A 26162.29853863 -.00000234 00000+0 -97393-4 0 9998 
2 37214 98.9625 208.2882 0021589 200.8547 250.0401 14.14838721806598 
1 37849U 11061A 26162.20825346 .00000046 00000+0 42973-4 0 9995 
2 37849 98.7953 103.1252 0001864 20.3894 339.7356 14.19516138757591 
1 38552U 12035B 26162.05263723 .00000010 00000+0 00000+0 0 9998 
2 38552 4.6563 61.0440 0001485 331.7764 245.7883 1.00275927 50794 
1 38771U 12049A 26162.27675095 .00000079 00000+0 56018-4 0 9999 
2 38771 98.6506 213.8937 0002585 33.7546 326.3796 14.21431073712421 
1 39216U 13038B 26161.93595455 -.00000322 00000+0 00000+0 0 9993 
2 39216 1.9090 82.6175 0000664 314.3328 328.8054 1.00272374 47019 
1 39260U 13052A 26162.24858566 .00000078 00000+0 60487-4 0 9995 
2 39260 98.4976 136.3962 0015539 43.8949 316.3457 14.15753709657723 
1 40069U 14037A 26162.23283705 .00000111 00000+0 69874-4 0 9991 
2 40069 98.5110 138.1822 0006968 59.0544 301.1318 14.21460058618470 
1 40267U 14060A 26162.22329212 -.00000259 00000+0 00000+0 0 9995 
2 40267 0.0134 322.1137 0000745 147.7960 10.7086 1.00269801 42700 
1 40367U 14090A 26161.87958189 -.00000288 00000+0 00000+0 0 9992 
2 40367 5.6217 72.8938 0003598 153.1505 89.4806 1.00275586 41931 
1 40732U 15034A 26162.19730484 .00000080 00000+0 00000+0 0 9998 
2 40732 3.1871 71.1447 0001734 7.5996 261.3282 1.00278472 7151 
1 41105U 15074A 26161.97872950 -.00000103 00000+0 00000+0 0 9994 
2 41105 6.6771 70.6006 0000813 270.8986 255.6834 1.00271247 38447 
1 41335U 16011A 26162.25552435 .00000077 00000+0 49861-4 0 9998 
2 41335 98.6249 229.7241 0001373 103.4833 256.6500 14.26738289537211 
1 41752U 16054A 26162.13882605 -.00000059 00000+0 00000+0 0 9998 
2 41752 0.0898 87.2514 0010550 186.7381 109.4586 1.00270317 35752 
1 41836U 16064A 26162.22329212 -.00000257 00000+0 00000+0 0 9992 
2 41836 0.0334 156.8886 0000827 332.7447 351.1040 1.00271360 35151 
1 41866U 16071A 26162.16780942 -.00000074 00000+0 00000+0 0 9994 
2 41866 0.3246 85.5740 0000306 305.1669 184.5101 1.00270276 35047 
1 41882U 16077A 26162.29118666 -.00000340 00000+0 00000+0 0 9996 
2 41882 2.3065 80.3577 0008488 151.7582 256.1365 1.00272121 34874 
1 41884U 16078A 26162.08653965 .00023052 00000+0 31544-3 0 9997 
2 41884 34.9573 300.9791 0006745 88.1573 271.9924 15.56401312527805 
1 41885U 16078B 26162.01204737 .00028895 00000+0 32954-3 0 9996 
2 41885 34.9327 269.4712 0006056 135.5547 224.5665 15.61170936528031 
1 41886U 16078C 26161.70533056 .00032660 00000+0 33196-3 0 9995 
2 41886 34.9406 266.2401 0007042 133.0088 227.1229 15.64084341528154 
1 41887U 16078D 26162.07789932 .00023842 00000+0 31817-3 0 9993 
2 41887 34.9404 302.1433 0006549 80.9909 279.1557 15.57068912527755 
1 41888U 16078E 26161.72776159 .00026299 00000+0 31762-3 0 9990 
2 41888 34.9432 284.2116 0007816 112.7020 247.4532 15.59680721527965 
1 41890U 16078G 26161.68731031 .00034377 00000+0 41312-3 0 9996 
2 41890 34.9451 272.8288 0006302 130.5136 229.6139 15.59785027527989 
1 41891U 16078H 26161.72228424 .00025925 00000+0 31217-3 0 9991 
2 41891 34.9402 274.5351 0005910 117.3861 242.7466 15.59776554527960 
